STARLINK-37361          
1 69134U 26110L   26165.83339119  .00050950  00000+0  15726-2 0  9991
2 69134  97.2841   2.2868 0002002  90.8972  94.1398 15.33390021  5276
STARLINK-37372          
1 69135U 26110M   26165.81576248 -.00073500  00000+0 -13669-2 0  9998
2 69135  97.2829   2.2305 0001165  65.3030 294.8342 15.49095566  5248
STARLINK-37531          
1 69136U 26110N   26165.83339119 -.03012005  00000+0 -92209-1 0  9997
2 69136  97.2833   2.2958 0001967  93.8602 115.6254 15.37781582  5271
STARLINK-37662          
1 69137U 26110P   26165.81541437  .00050429  00000+0  92183-3 0  9994
2 69137  97.2828   2.2308 0001840  98.3457 261.8003 15.49223138  5247
STARLINK-37658          
1 69138U 26110Q   26165.52415151  .00040327  00000+0  73887-3 0  9992
2 69138  97.2829   1.8619 0001154  91.8620 268.2763 15.49207730  5195
STARLINK-37659          
1 69139U 26110R   26165.79022686  .00035967  00000+0  66078-3 0  9997
2 69139  97.2836   2.1120 0002060 101.7604 258.3878 15.49152387  5234
STARLINK-37653          
1 69140U 26110S   26165.79267983  .00028645  00000+0  52602-3 0  9993
2 69140  97.2843   2.1087 0000725  97.1756 262.9578 15.49212172  5235
STARLINK-37654          
1 69141U 26110T   26165.49076929  .00047639  00000+0  87222-3 0  9999
2 69141  97.2829   1.9078 0001601  89.5800 270.5635 15.49191290  5197
STARLINK-37655          
1 69142U 26110U   26165.83339119 -.02369020  00000+0 -57054-1 0  9994
2 69142  97.2843   2.3023 0002159  92.1430 122.5296 15.44665477  5273
STARLINK-37636          
1 69143U 26110V   26165.83339119 -.01416056  00000+0 -46968-1 0  9998
2 69143  97.2842   2.3464 0002677  85.4543 234.2626 15.34330613  5275
STARLINK-37638          
1 69144U 26110W   26165.83339119 -.01474667  00000+0 -48952-1 0  9996
2 69144  97.2838   2.3536 0002201  88.9796 245.5673 15.34437718  5273
STARLINK-37657          
1 69145U 26110X   26165.81393126  .00061774  00000+0  11265-2 0  9999
2 69145  97.2828   2.2347 0001052  92.3170 267.8202 15.49243760  5240
STARLINK-37639          
1 69146U 26110Y   26165.83339119 -.03935033  00000+0 -12597+0 0  9993
2 69146  97.2837   2.3695 0001144  89.6532 272.9535 15.36892852  5335
STARLINK-37661          
1 69147U 26110Z   26165.51241064  .00069234  00000+0  12621-2 0  9997
2 69147  97.2835   1.8780 0001752  98.9812 261.1638 15.49219791  5199
STARLINK-37395          
1 69148U 26111A   26165.83339119 -.01110039  00000+0 -11927-1 0  9993
2 69148  53.1590 163.6284 0000808  86.2262 351.4388 15.65612160  5173
STARLINK-37346          
1 69149U 26111B   26165.83339119 -.00810166  00000+0 -15592-1 0  9993
2 69149  53.1597 164.0716 0001281  63.1881 156.0069 15.49836136  5171
STARLINK-37332          
1 69150U 26111C   26165.83339119  .00077933  00000+0  13977-2 0  9996
2 69150  53.1584 164.3968 0001199  92.2132 326.4169 15.49261629  5174
STARLINK-37297          
1 69151U 26111D   26165.83339119 -.02553214  00000+0 -26323-1 0  9990
2 69151  53.1590 163.5700 0001134  75.9921  30.0940 15.67670885  5173
STARLINK-37317          
1 69152U 26111E   26165.83339119 -.02468153  00000+0 -21032-1 0  9990
2 69152  53.1598 163.4700 0001179  91.8749  63.0725 15.72079667  5179
STARLINK-37374          
1 69153U 26111F   26165.83339119  .00079766  00000+0  14298-2 0  9992
2 69153  53.1589 164.5732 0000693 100.6467 230.3762 15.49265525  5177
STARLINK-37235          
1 69154U 26111G   26165.83339119  .00077350  00000+0  13872-2 0  9997
2 69154  53.1588 164.8157 0001040  93.4689 118.1524 15.49264319  5172
STARLINK-37329          
1 69155U 26111H   26165.83339119 -.02538803  00000+0 -21725-1 0  9992
2 69155  53.1597 163.4733 0001214  93.0218  60.2190 15.72077580  5179
STARLINK-37345          
1 69156U 26111J   26165.83339119 -.02547367  00000+0 -20308-1 0  9994
2 69156  53.1597 163.4390 0001198  94.1521  75.8391 15.73726869  5176
STARLINK-37353          
1 69157U 26111K   26165.86654300 -.01076525  00000+0 -81414-2 0  9998
2 69157  53.1589 163.2713 0005308 332.6667  27.4072 15.74257818  3893
STARLINK-37363          
1 69158U 26111L   26165.83339119 -.01097027  00000+0 -93667-2 0  9997
2 69158  53.1597 163.4307 0000860  89.6256  84.3122 15.71549155  5171
STARLINK-37343          
1 69159U 26111M   26165.83339119  .00077286  00000+0  13862-2 0  9999
2 69159  53.1589 164.5741 0000861  97.5269 232.7295 15.49262753  5171
STARLINK-37328          
1 69160U 26111N   26164.72352018  .00440945  00000+0  21155-2 0  9991
2 69160  53.1569 168.9418 0002882  21.7732 338.3413 15.80975520  3710
STARLINK-37311          
1 69161U 26111P   26165.87520641  .00037369  00000+0  22584-3 0  9998
2 69161  53.1565 163.3278 0004462 342.5864  17.5003 15.77261203  3898
STARLINK-36286          
1 69162U 26111Q   26165.05091157  .00507206  00000+0  26694-2 0  9991
2 69162  53.1564 167.4332 0002061 147.7855 212.3293 15.78761169  3761
STARLINK-37196          
1 69163U 26111R   26165.56034997  .00136844  00000+0  77789-3 0  9995
2 69163  53.1566 164.9214 0001435  48.8780 311.2365 15.78098124  3849
