OBJECT_NAME,OBJECT_ID,EPOCH,MEAN_MOTION,ECCENTRICITY,INCLINATION,RA_OF_ASC_NODE,ARG_OF_PERICENTER,MEAN_ANOMALY,EPHEMERIS_TYPE,CLASSIFICATION_TYPE,NORAD_CAT_ID,ELEMENT_SET_NO,REV_AT_EPOCH,BSTAR,MEAN_MOTION_DOT,MEAN_MOTION_DDOT
STARLINK-37361,2026-110L,2026-06-14T20:00:04.998816,15.33390021,.0002002,97.2841,2.2868,90.8972,94.1398,0,U,69134,999,527,.15726E-2,.5095E-3,0
STARLINK-37372,2026-110M,2026-06-14T19:34:41.878272,15.49095566,.0001165,97.2829,2.2305,65.3030,294.8342,0,U,69135,999,524,-.13669E-2,-.735E-3,0
STARLINK-37531,2026-110N,2026-06-14T20:00:04.998816,15.37781582,.0001967,97.2833,2.2958,93.8602,115.6254,0,U,69136,999,527,-.92209E-1,-.3012005E-1,0
STARLINK-37662,2026-110P,2026-06-14T19:34:11.801568,15.49223138,.000184,97.2828,2.2308,98.3457,261.8003,0,U,69137,999,524,.92183E-3,.50429E-3,0
STARLINK-37658,2026-110Q,2026-06-14T12:34:46.690464,15.49207730,.00011543,97.2829,1.8619,91.8620,268.2763,0,U,69138,999,519,.73887094E-3,.40327E-3,0
STARLINK-37659,2026-110R,2026-06-14T18:57:55.600704,15.49152387,.000206,97.2836,2.1120,101.7604,258.3878,0,U,69139,999,523,.66078E-3,.35967E-3,0
STARLINK-37653,2026-110S,2026-06-14T19:01:27.537312,15.49212172,.0000725,97.2843,2.1087,97.1756,262.9578,0,U,69140,999,523,.52602E-3,.28645E-3,0
STARLINK-37654,2026-110T,2026-06-14T11:46:42.466656,15.49191290,.00016013,97.2829,1.9078,89.5800,270.5635,0,U,69141,999,519,.87222282E-3,.47639E-3,0
STARLINK-37655,2026-110U,2026-06-14T20:00:04.998816,15.44665477,.0002159,97.2843,2.3023,92.1430,122.5296,0,U,69142,999,527,-.57054E-1,-.236902E-1,0
STARLINK-37636,2026-110V,2026-06-14T20:00:04.998816,15.34330613,.0002677,97.2842,2.3464,85.4543,234.2626,0,U,69143,999,527,-.46968E-1,-.1416056E-1,0
STARLINK-37638,2026-110W,2026-06-14T20:00:04.998816,15.34437718,.0002201,97.2838,2.3536,88.9796,245.5673,0,U,69144,999,527,-.48952E-1,-.1474667E-1,0
STARLINK-37657,2026-110X,2026-06-14T19:32:03.660864,15.49243760,.0001052,97.2828,2.2347,92.3170,267.8202,0,U,69145,999,524,.11265E-2,.61774E-3,0
STARLINK-37639,2026-110Y,2026-06-14T20:00:04.998816,15.36892852,.0001144,97.2837,2.3695,89.6532,272.9535,0,U,69146,999,533,-.12597E+0,-.3935033E-1,0
STARLINK-37661,2026-110Z,2026-06-14T12:17:52.279296,15.49219791,.00017527,97.2835,1.8780,98.9812,261.1638,0,U,69147,999,519,.12621181E-2,.69234E-3,0
STARLINK-37395,2026-111A,2026-06-14T20:00:04.998816,15.65612160,.0000808,53.1590,163.6284,86.2262,351.4388,0,U,69148,999,517,-.11927E-1,-.1110039E-1,0
STARLINK-37346,2026-111B,2026-06-14T20:00:04.998816,15.49836136,.0001281,53.1597,164.0716,63.1881,156.0069,0,U,69149,999,517,-.15592E-1,-.810166E-2,0
STARLINK-37332,2026-111C,2026-06-14T20:00:04.998816,15.49261629,.0001199,53.1584,164.3968,92.2132,326.4169,0,U,69150,999,517,.13977E-2,.77933E-3,0
STARLINK-37297,2026-111D,2026-06-14T20:00:04.998816,15.67670885,.0001134,53.1590,163.5700,75.9921,30.0940,0,U,69151,999,517,-.26323E-1,-.2553214E-1,0
STARLINK-37317,2026-111E,2026-06-14T20:00:04.998816,15.72079667,.0001179,53.1598,163.4700,91.8749,63.0725,0,U,69152,999,517,-.21032E-1,-.2468153E-1,0
STARLINK-37374,2026-111F,2026-06-14T20:00:04.998816,15.49265525,.0000693,53.1589,164.5732,100.6467,230.3762,0,U,69153,999,517,.14298E-2,.79766E-3,0
STARLINK-37235,2026-111G,2026-06-14T20:00:04.998816,15.49264319,.000104,53.1588,164.8157,93.4689,118.1524,0,U,69154,999,517,.13872E-2,.7735E-3,0
STARLINK-37329,2026-111H,2026-06-14T20:00:04.998816,15.72077580,.0001214,53.1597,163.4733,93.0218,60.2190,0,U,69155,999,517,-.21725E-1,-.2538803E-1,0
STARLINK-37345,2026-111J,2026-06-14T20:00:04.998816,15.73726869,.0001198,53.1597,163.4390,94.1521,75.8391,0,U,69156,999,517,-.20308E-1,-.2547367E-1,0
STARLINK-37353,2026-111K,2026-06-14T20:47:49.315200,15.74257818,.0005308,53.1589,163.2713,332.6667,27.4072,0,U,69157,999,389,-.81414E-2,-.1076525E-1,0
STARLINK-37363,2026-111L,2026-06-14T20:00:04.998816,15.71549155,.000086,53.1597,163.4307,89.6256,84.3122,0,U,69158,999,517,-.93667E-2,-.1097027E-1,0
STARLINK-37343,2026-111M,2026-06-14T20:00:04.998816,15.49262753,.0000861,53.1589,164.5741,97.5269,232.7295,0,U,69159,999,517,.13862E-2,.77286E-3,0
STARLINK-37328,2026-111N,2026-06-13T17:21:52.143552,15.80975520,.00028828,53.1569,168.9418,21.7732,338.3413,0,U,69160,999,371,.21155205E-2,.440945E-2,0
STARLINK-37311,2026-111P,2026-06-14T21:00:17.833824,15.77261203,.0004462,53.1565,163.3278,342.5864,17.5003,0,U,69161,999,389,.22584E-3,.37369E-3,0
STARLINK-36286,2026-111Q,2026-06-14T01:13:18.759648,15.78761169,.00020619,53.1564,167.4332,147.7855,212.3293,0,U,69162,999,376,.26694472E-2,.507206E-2,0
STARLINK-37196,2026-111R,2026-06-14T13:26:54.237408,15.78098124,.0001435,53.1566,164.9214,48.8780,311.2365,0,U,69163,999,384,.77789E-3,.136844E-2,0
